ORBCOMM FM05            
1 25117U 97084F   26017.54856051  .00001143  00000+0  35191-3 0  9994
2 25117  45.0153  58.1555 0004190 243.4461 116.5962 14.46854009471646
ORBCOMM FM06            
1 25118U 97084G   26017.82701713  .00001176  00000+0  35961-3 0  9991
2 25118  45.0146  56.2924 0003205 251.5052 278.0389 14.47021320472607
ORBCOMM FM07            
1 25119U 97084H   26017.46131274  .00001089  00000+0  33597-3 0  9997
2 25119  45.0140  58.7959 0004862 236.6433 123.3954 14.47035116472545
ORBCOMM FM03            
1 25158U 98007B   26017.79459568  .00000946  00000+0  37270-3 0  9994
2 25158 107.9659 216.6343 0046303 234.7590 124.9212 14.35144109454827
ORBCOMM FM04            
1 25159U 98007C   26017.81189351  .00000822  00000+0  32902-3 0  9998
2 25159 107.9648 220.0374 0042006 232.2653 127.4677 14.35383997455013
ORBCOMM FM17            
1 25413U 98046A   26017.56698141  .00000600  00000+0  25476-3 0  9990
2 25413  44.9958 325.4569 0002730 248.9303 111.1252 14.35620729433979
ORBCOMM FM18            
1 25414U 98046B   26017.82345030  .00000714  00000+0  27360-3 0  9996
2 25414  44.9915 235.7714 0004080 291.0623  68.9789 14.39267088435168
ORBCOMM FM19            
1 25415U 98046C   26017.66734620  .00000725  00000+0  27795-3 0  9990
2 25415  44.9927 238.8388 0002842 287.0797 115.7309 14.39090501435099
